{
  "links" : {
    "next" : "https://api.nasa.gov/neo/rest/v1/feed?start_date=2008-04-09&end_date=2008-04-09&detailed=true&api_key=t0TVs3DtDT2H8Oy2Zy8m2eVrNsAVKAexjcZXUckd",
    "prev" : "https://api.nasa.gov/neo/rest/v1/feed?start_date=2008-04-07&end_date=2008-04-07&detailed=true&api_key=t0TVs3DtDT2H8Oy2Zy8m2eVrNsAVKAexjcZXUckd",
    "self" : "https://api.nasa.gov/neo/rest/v1/feed?start_date=2008-04-08&end_date=2008-04-08&detailed=true&api_key=t0TVs3DtDT2H8Oy2Zy8m2eVrNsAVKAexjcZXUckd"
  },
  "element_count" : 5,
  "near_earth_objects" : {
    "2008-04-08" : [ {
      "links" : {
        "self" : "https://api.nasa.gov/neo/rest/v1/neo/3648863?api_key=t0TVs3DtDT2H8Oy2Zy8m2eVrNsAVKAexjcZXUckd"
      },
      "neo_reference_id" : "3648863",
      "name" : "(2013 TS5)",
      "nasa_jpl_url" : "http://ssd.jpl.nasa.gov/sbdb.cgi?sstr=3648863",
      "absolute_magnitude_h" : 19.2,
      "estimated_diameter" : {
        "kilometers" : {
          "estimated_diameter_min" : 0.3841978911,
          "estimated_diameter_max" : 0.8590926012
        },
        "meters" : {
          "estimated_diameter_min" : 384.1978910643,
          "estimated_diameter_max" : 859.0926012318
        },
        "miles" : {
          "estimated_diameter_min" : 0.2387294278,
          "estimated_diameter_max" : 0.5338152287
        },
        "feet" : {
          "estimated_diameter_min" : 1260.4918089193,
          "estimated_diameter_max" : 2818.5453698252
        }
      },
      "is_potentially_hazardous_asteroid" : false,
      "close_approach_data" : [ {
        "close_approach_date" : "2008-04-08",
        "epoch_date_close_approach" : 1207638000000,
        "relative_velocity" : {
          "kilometers_per_second" : "38.3181942939",
          "kilometers_per_hour" : "137945.4994580713",
          "miles_per_hour" : "85713.9688160444"
        },
        "miss_distance" : {
          "astronomical" : "0.4141553882",
          "lunar" : "161.1064453125",
          "kilometers" : "61956764",
          "miles" : "38498148"
        },
        "orbiting_body" : "Earth"
      } ],
      "orbital_data" : {
        "orbit_id" : "23",
        "orbit_determination_date" : "2017-09-19 06:48:16",
        "orbit_uncertainty" : "2",
        "minimum_orbit_intersection" : ".41255",
        "jupiter_tisserand_invariant" : "5.164",
        "epoch_osculation" : "2458000.5",
        "eccentricity" : ".4882591805304692",
        "semi_major_axis" : "1.108398943527283",
        "inclination" : "54.31121512367606",
        "ascending_node_longitude" : "195.5829111999242",
        "orbital_period" : "426.2285941455231",
        "perihelion_distance" : ".5672129836598141",
        "perihelion_argument" : "336.3292528540757",
        "aphelion_distance" : "1.649584903394752",
        "perihelion_time" : "2457964.324512889369",
        "mean_anomaly" : "30.55443848373244",
        "mean_motion" : ".84461719590096",
        "equinox" : "J2000"
      }
    }, {
      "links" : {
        "self" : "https://api.nasa.gov/neo/rest/v1/neo/3683396?api_key=t0TVs3DtDT2H8Oy2Zy8m2eVrNsAVKAexjcZXUckd"
      },
      "neo_reference_id" : "3683396",
      "name" : "(2014 QQ266)",
      "nasa_jpl_url" : "http://ssd.jpl.nasa.gov/sbdb.cgi?sstr=3683396",
      "absolute_magnitude_h" : 20.6,
      "estimated_diameter" : {
        "kilometers" : {
          "estimated_diameter_min" : 0.2016299194,
          "estimated_diameter_max" : 0.4508582062
        },
        "meters" : {
          "estimated_diameter_min" : 201.6299194428,
          "estimated_diameter_max" : 450.8582061718
        },
        "miles" : {
          "estimated_diameter_min" : 0.1252869847,
          "estimated_diameter_max" : 0.2801502144
        },
        "feet" : {
          "estimated_diameter_min" : 661.5155049046,
          "estimated_diameter_max" : 1479.1936371367
        }
      },
      "is_potentially_hazardous_asteroid" : false,
      "close_approach_data" : [ {
        "close_approach_date" : "2008-04-08",
        "epoch_date_close_approach" : 1207638000000,
        "relative_velocity" : {
          "kilometers_per_second" : "36.293737275",
          "kilometers_per_hour" : "130657.4541900068",
          "miles_per_hour" : "81185.4609104518"
        },
        "miss_distance" : {
          "astronomical" : "0.3797956717",
          "lunar" : "147.7405090332",
          "kilometers" : "56816624",
          "miles" : "35304212"
        },
        "orbiting_body" : "Earth"
      } ],
      "orbital_data" : {
        "orbit_id" : "10",
        "orbit_determination_date" : "2017-04-06 08:39:11",
        "orbit_uncertainty" : "7",
        "minimum_orbit_intersection" : ".155957",
        "jupiter_tisserand_invariant" : "4.276",
        "epoch_osculation" : "2458000.5",
        "eccentricity" : ".5976203308551612",
        "semi_major_axis" : "1.410300625095287",
        "inclination" : "45.33449189399465",
        "ascending_node_longitude" : "352.4489213785865",
        "orbital_period" : "611.7387262520264",
        "perihelion_distance" : ".5674762989206009",
        "perihelion_argument" : "116.5899582510668",
        "aphelion_distance" : "2.253124951269973",
        "perihelion_time" : "2458203.203303062582",
        "mean_anomaly" : "240.7118366535031",
        "mean_motion" : ".5884865295444544",
        "equinox" : "J2000"
      }
    } ]
  }
}